{"fetched_at":"2026-03-29T16:36:15Z","count":15609,"tles":[{"name":"STARLINK-30067","line1":"1 56693U 23067F   26087.60948403  .00000645  00000+0  62807-4 0  9995","line2":"2 56693  43.0038 171.8643 0001915 272.0761  87.9862 15.02531786158507","category":"Starlink"}]}